{
  "norad_id": 65318,
  "name": "CAPELLA-16 (ACADIA-6)",
  "history": [
    {
      "epoch": "2026-03-28T19:05:40.411968",
      "apogee_km": 590.1823407191132,
      "perigee_km": 582.134679399509,
      "latitude_deg": -12.218824544665958,
      "longitude_deg": 68.17823552014306,
      "semi_major_axis_km": 6964.295510059311,
      "eccentricity": 0.00057778,
      "inclination_deg": 97.7379,
      "raan_deg": 164.1263,
      "arg_perigee_deg": 143.0458,
      "mean_anomaly_deg": 217.1161,
      "mean_motion_rev_day": 14.93781153
    },
    {
      "epoch": "2026-03-29T04:44:25.664928",
      "apogee_km": 590.1551976121618,
      "perigee_km": 582.0905846582264,
      "latitude_deg": -24.441742005522073,
      "longitude_deg": 106.76184992003255,
      "semi_major_axis_km": 6964.259891135193,
      "eccentricity": 0.000579,
      "inclination_deg": 97.7378,
      "raan_deg": 164.5221,
      "arg_perigee_deg": 141.921,
      "mean_anomaly_deg": 218.242,
      "mean_motion_rev_day": 14.93792613
    }
  ]
}